CCSDS_OMM_VERS = 2.0
CREATION_DATE  = 
ORIGINATOR     = 

OBJECT_NAME    = ARIANE 5 R/B
OBJECT_ID      = 2004-049H
CENTER_NAME    = EARTH
REF_FRAME      = TEME
TIME_SYSTEM    = UTC
MEAN_ELEMENT_THEORY = SGP/SGP4

EPOCH          = 2025-11-01T09:56:34.725120
MEAN_MOTION    = 14.84885974
ECCENTRICITY   = .00856776
INCLINATION    = 98.2510
RA_OF_ASC_NODE = 104.2239
ARG_OF_PERICENTER = 47.3888
MEAN_ANOMALY   = 313.4510

EPHEMERIS_TYPE = 0
CLASSIFICATION_TYPE = U
NORAD_CAT_ID   = 28499
ELEMENT_SET_NO = 999
REV_AT_EPOCH   = 12675
BSTAR          = .14065191E-3
MEAN_MOTION_DOT = .1213E-4
MEAN_MOTION_DDOT = 0

CCSDS_OMM_VERS = 2.0
CREATION_DATE  = 
ORIGINATOR     = 

OBJECT_NAME    = CZ-2D R/B
OBJECT_ID      = 2005-024B
CENTER_NAME    = EARTH
REF_FRAME      = TEME
TIME_SYSTEM    = UTC
MEAN_ELEMENT_THEORY = SGP/SGP4

EPOCH          = 2025-11-01T10:51:12.477600
MEAN_MOTION    = 15.50449982
ECCENTRICITY   = .00078597
INCLINATION    = 97.3680
RA_OF_ASC_NODE = 311.8941
ARG_OF_PERICENTER = 119.4446
MEAN_ANOMALY   = 240.7591

EPHEMERIS_TYPE = 0
CLASSIFICATION_TYPE = U
NORAD_CAT_ID   = 28738
ELEMENT_SET_NO = 999
REV_AT_EPOCH   = 11985
BSTAR          = .48575768E-3
MEAN_MOTION_DOT = .27651E-3
MEAN_MOTION_DDOT = 0

CCSDS_OMM_VERS = 2.0
CREATION_DATE  = 
ORIGINATOR     = 

OBJECT_NAME    = ALOS (DAICHI)
OBJECT_ID      = 2006-002A
CENTER_NAME    = EARTH
REF_FRAME      = TEME
TIME_SYSTEM    = UTC
MEAN_ELEMENT_THEORY = SGP/SGP4

EPOCH          = 2025-11-01T10:17:46.112352
MEAN_MOTION    = 14.69278912
ECCENTRICITY   = .00016132
INCLINATION    = 98.1020
RA_OF_ASC_NODE = 257.2286
ARG_OF_PERICENTER = 53.9698
MEAN_ANOMALY   = 306.1657

EPHEMERIS_TYPE = 0
CLASSIFICATION_TYPE = U
NORAD_CAT_ID   = 28931
ELEMENT_SET_NO = 999
REV_AT_EPOCH   = 5464
BSTAR          = .39373051E-3
MEAN_MOTION_DOT = .2274E-4
MEAN_MOTION_DDOT = 0

CCSDS_OMM_VERS = 2.0
CREATION_DATE  = 
ORIGINATOR     = 

OBJECT_NAME    = H-2A R/B
OBJECT_ID      = 2006-002B
CENTER_NAME    = EARTH
REF_FRAME      = TEME
TIME_SYSTEM    = UTC
MEAN_ELEMENT_THEORY = SGP/SGP4

EPOCH          = 2025-11-01T14:38:27.332448
MEAN_MOTION    = 15.13453323
ECCENTRICITY   = .00549879
INCLINATION    = 98.2287
RA_OF_ASC_NODE = 77.0456
ARG_OF_PERICENTER = 317.2445
MEAN_ANOMALY   = 42.4512

EPHEMERIS_TYPE = 0
CLASSIFICATION_TYPE = U
NORAD_CAT_ID   = 28932
ELEMENT_SET_NO = 999
REV_AT_EPOCH   = 7504
BSTAR          = .4232134E-3
MEAN_MOTION_DOT = .7775E-4
MEAN_MOTION_DDOT = 0

CCSDS_OMM_VERS = 2.0
CREATION_DATE  = 
ORIGINATOR     = 

OBJECT_NAME    = RESURS-DK 1
OBJECT_ID      = 2006-021A
CENTER_NAME    = EARTH
REF_FRAME      = TEME
TIME_SYSTEM    = UTC
MEAN_ELEMENT_THEORY = SGP/SGP4

EPOCH          = 2025-11-01T11:34:32.042784
MEAN_MOTION    = 15.11822915
ECCENTRICITY   = .00072057
INCLINATION    = 69.9335
RA_OF_ASC_NODE = 208.4296
ARG_OF_PERICENTER = 292.5687
MEAN_ANOMALY   = 67.4716

EPHEMERIS_TYPE = 0
CLASSIFICATION_TYPE = U
NORAD_CAT_ID   = 29228
ELEMENT_SET_NO = 999
REV_AT_EPOCH   = 6814
BSTAR          = .21990634E-3
MEAN_MOTION_DOT = .3662E-4
MEAN_MOTION_DDOT = 0

CCSDS_OMM_VERS = 2.0
CREATION_DATE  = 
ORIGINATOR     = 

OBJECT_NAME    = CZ-4B R/B
OBJECT_ID      = 2006-046C
CENTER_NAME    = EARTH
REF_FRAME      = TEME
TIME_SYSTEM    = UTC
MEAN_ELEMENT_THEORY = SGP/SGP4

EPOCH          = 2025-11-01T13:41:22.772544
MEAN_MOTION    = 15.15268576
ECCENTRICITY   = .00342154
INCLINATION    = 97.5808
RA_OF_ASC_NODE = 345.8232
ARG_OF_PERICENTER = 354.0906
MEAN_ANOMALY   = 5.9917

EPHEMERIS_TYPE = 0
CLASSIFICATION_TYPE = U
NORAD_CAT_ID   = 29507
ELEMENT_SET_NO = 999
REV_AT_EPOCH   = 4063
BSTAR          = .2842229E-3
MEAN_MOTION_DOT = .5356E-4
MEAN_MOTION_DDOT = 0

CCSDS_OMM_VERS = 2.0
CREATION_DATE  = 
ORIGINATOR     = 

OBJECT_NAME    = CZ-2C R/B
OBJECT_ID      = 2007-010B
CENTER_NAME    = EARTH
REF_FRAME      = TEME
TIME_SYSTEM    = UTC
MEAN_ELEMENT_THEORY = SGP/SGP4

EPOCH          = 2025-11-01T13:46:48.010656
MEAN_MOTION    = 14.20184794
ECCENTRICITY   = .00580499
INCLINATION    = 98.3952
RA_OF_ASC_NODE = 60.3025
ARG_OF_PERICENTER = 307.4079
MEAN_ANOMALY   = 52.1822

EPHEMERIS_TYPE = 0
CLASSIFICATION_TYPE = U
NORAD_CAT_ID   = 31114
ELEMENT_SET_NO = 999
REV_AT_EPOCH   = 96153
BSTAR          = .10338157E-3
MEAN_MOTION_DOT = .183E-5
MEAN_MOTION_DDOT = 0

CCSDS_OMM_VERS = 2.0
CREATION_DATE  = 
ORIGINATOR     = 

OBJECT_NAME    = COSMO-SKYMED 1
OBJECT_ID      = 2007-023A
CENTER_NAME    = EARTH
REF_FRAME      = TEME
TIME_SYSTEM    = UTC
MEAN_ELEMENT_THEORY = SGP/SGP4

EPOCH          = 2025-11-01T13:46:00.203808
MEAN_MOTION    = 14.95315626
ECCENTRICITY   = .00010089
INCLINATION    = 97.8858
RA_OF_ASC_NODE = 130.7133
ARG_OF_PERICENTER = 85.0106
MEAN_ANOMALY   = 275.1230

EPHEMERIS_TYPE = 0
CLASSIFICATION_TYPE = U
NORAD_CAT_ID   = 31598
ELEMENT_SET_NO = 999
REV_AT_EPOCH   = 99574
BSTAR          = .35139647E-3
MEAN_MOTION_DOT = .3814E-4
MEAN_MOTION_DDOT = 0

CCSDS_OMM_VERS = 2.0
CREATION_DATE  = 
ORIGINATOR     = 

OBJECT_NAME    = COSMOS 2428
OBJECT_ID      = 2007-029A
CENTER_NAME    = EARTH
REF_FRAME      = TEME
TIME_SYSTEM    = UTC
MEAN_ELEMENT_THEORY = SGP/SGP4

EPOCH          = 2025-11-01T11:06:58.561920
MEAN_MOTION    = 14.12892639
ECCENTRICITY   = .00017904
INCLINATION    = 70.9363
RA_OF_ASC_NODE = 112.5365
ARG_OF_PERICENTER = 108.5630
MEAN_ANOMALY   = 251.5685

EPHEMERIS_TYPE = 0
CLASSIFICATION_TYPE = U
NORAD_CAT_ID   = 31792
ELEMENT_SET_NO = 999
REV_AT_EPOCH   = 94598
BSTAR          = -.81450172E-4
MEAN_MOTION_DOT = -.2E-5
MEAN_MOTION_DDOT = 0

CCSDS_OMM_VERS = 2.0
CREATION_DATE  = 
ORIGINATOR     = 

OBJECT_NAME    = SL-16 R/B
OBJECT_ID      = 2007-029B
CENTER_NAME    = EARTH
REF_FRAME      = TEME
TIME_SYSTEM    = UTC
MEAN_ELEMENT_THEORY = SGP/SGP4

EPOCH          = 2025-11-01T15:45:12.489984
MEAN_MOTION    = 14.14803346
ECCENTRICITY   = .00023518
INCLINATION    = 70.9740
RA_OF_ASC_NODE = 81.5131
ARG_OF_PERICENTER = 259.9635
MEAN_ANOMALY   = 117.1617

EPHEMERIS_TYPE = 0
CLASSIFICATION_TYPE = U
NORAD_CAT_ID   = 31793
ELEMENT_SET_NO = 999
REV_AT_EPOCH   = 94726
BSTAR          = .6778684E-5
MEAN_MOTION_DOT = -.35E-6
MEAN_MOTION_DDOT = 0

CCSDS_OMM_VERS = 2.0
CREATION_DATE  = 
ORIGINATOR     = 

OBJECT_NAME    = KORONAS-FOTON
OBJECT_ID      = 2009-003A
CENTER_NAME    = EARTH
REF_FRAME      = TEME
TIME_SYSTEM    = UTC
MEAN_ELEMENT_THEORY = SGP/SGP4

EPOCH          = 2025-11-01T13:45:09.514656
MEAN_MOTION    = 15.39840554
ECCENTRICITY   = .0010642
INCLINATION    = 82.4329
RA_OF_ASC_NODE = 48.7084
ARG_OF_PERICENTER = 255.8372
MEAN_ANOMALY   = 104.1691

EPHEMERIS_TYPE = 0
CLASSIFICATION_TYPE = U
NORAD_CAT_ID   = 33504
ELEMENT_SET_NO = 999
REV_AT_EPOCH   = 92600
BSTAR          = .36631454E-3
MEAN_MOTION_DOT = .14606E-3
MEAN_MOTION_DDOT = 0

CCSDS_OMM_VERS = 2.0
CREATION_DATE  = 
ORIGINATOR     = 

OBJECT_NAME    = CZ-2C R/B
OBJECT_ID      = 2011-030B
CENTER_NAME    = EARTH
REF_FRAME      = TEME
TIME_SYSTEM    = UTC
MEAN_ELEMENT_THEORY = SGP/SGP4

EPOCH          = 2025-11-01T15:58:25.743072
MEAN_MOTION    = 14.80677270
ECCENTRICITY   = .00543697
INCLINATION    = 97.8339
RA_OF_ASC_NODE = 260.7039
ARG_OF_PERICENTER = 48.1251
MEAN_ANOMALY   = 124.2429

EPHEMERIS_TYPE = 0
CLASSIFICATION_TYPE = U
NORAD_CAT_ID   = 37731
ELEMENT_SET_NO = 999
REV_AT_EPOCH   = 77114
BSTAR          = .28546683E-3
MEAN_MOTION_DOT = .2197E-4
MEAN_MOTION_DDOT = 0

